SHENZHOU-22             
1 66645U 25272A   25342.29459357  .00024468  00000+0  30966-3 0  9995
2 66645  41.4681  43.6887 0009153 354.9466   5.1278 15.58883062263004
CZ-2F R/B               
1 66646U 25272B   25341.54184061  .11903621  80762-5  15075-3 0  9992
2 66646  41.4535  41.9834 0022140 229.6731 130.2205 16.47453798  2009
SOYUZ-MS 28             
1 66664U 25275A   25342.21990231  .00011911  00000+0  22082-3 0  9991
2 66664  51.6305 164.8582 0003431 219.3069 140.7671 15.49412336  1280
1998-067XS              
1 66906U 98067XS  25341.76603330  .00033584  00000+0  58960-3 0  9993
2 66906  51.6298 167.0779 0004102 180.8323 179.2660 15.50202047   848
1998-067XT              
1 66907U 98067XT  25342.21646454  .00064041  00000+0  10939-2 0  9994
2 66907  51.6300 164.8361 0004988 200.9093 159.1692 15.50682978   910
1998-067XU              
1 66908U 98067XU  25342.21629529  .00059851  00000+0  10219-2 0  9993
2 66908  51.6294 164.8350 0005181 200.0126 160.0661 15.50722225   912
SILVERSAT               
1 66909U 98067XV  25341.82955888  .00087585  00000+0  14852-2 0  9992
2 66909  51.6296 166.7520 0005092 199.8533 160.2258 15.50747382   851
1998-067XW              
1 66910U 98067XW  25341.89305730  .00060787  00000+0  10284-2 0  9996
2 66910  51.6295 166.4259 0006037 184.7367 175.3566 15.50969965   869
1998-067XX              
1 66911U 98067XX  25341.95732086  .00074641  00000+0  12533-2 0  9995
2 66911  51.6292 166.1051 0005930 185.6814 174.4109 15.51093228   866
1998-067XY              
1 66912U 98067XY  25341.95894762  .00051735  00000+0  89234-3 0  9998
2 66912  51.6298 166.1160 0005122 198.5004 161.5800 15.50498763   868
