CCSDS_OMM_VERS = 2.0
CREATION_DATE  = 
ORIGINATOR     = 

OBJECT_NAME    = SHENZHOU-22
OBJECT_ID      = 2025-272A
CENTER_NAME    = EARTH
REF_FRAME      = TEME
TIME_SYSTEM    = UTC
MEAN_ELEMENT_THEORY = SGP/SGP4

EPOCH          = 2025-12-08T07:04:12.884448
MEAN_MOTION    = 15.58883062
ECCENTRICITY   = .00091533
INCLINATION    = 41.4681
RA_OF_ASC_NODE = 43.6887
ARG_OF_PERICENTER = 354.9466
MEAN_ANOMALY   = 5.1278

EPHEMERIS_TYPE = 0
CLASSIFICATION_TYPE = U
NORAD_CAT_ID   = 66645
ELEMENT_SET_NO = 999
REV_AT_EPOCH   = 26300
BSTAR          = .309658E-3
MEAN_MOTION_DOT = .24468E-3
MEAN_MOTION_DDOT = 0

CCSDS_OMM_VERS = 2.0
CREATION_DATE  = 
ORIGINATOR     = 

OBJECT_NAME    = CZ-2F R/B
OBJECT_ID      = 2025-272B
CENTER_NAME    = EARTH
REF_FRAME      = TEME
TIME_SYSTEM    = UTC
MEAN_ELEMENT_THEORY = SGP/SGP4

EPOCH          = 2025-12-07T13:00:15.028704
MEAN_MOTION    = 16.47453798
ECCENTRICITY   = .002214
INCLINATION    = 41.4535
RA_OF_ASC_NODE = 41.9834
ARG_OF_PERICENTER = 229.6731
MEAN_ANOMALY   = 130.2205

EPHEMERIS_TYPE = 0
CLASSIFICATION_TYPE = U
NORAD_CAT_ID   = 66646
ELEMENT_SET_NO = 999
REV_AT_EPOCH   = 200
BSTAR          = .15075E-3
MEAN_MOTION_DOT = .11903621E+0
MEAN_MOTION_DDOT = .80762E-5

CCSDS_OMM_VERS = 2.0
CREATION_DATE  = 
ORIGINATOR     = 

OBJECT_NAME    = SOYUZ-MS 28
OBJECT_ID      = 2025-275A
CENTER_NAME    = EARTH
REF_FRAME      = TEME
TIME_SYSTEM    = UTC
MEAN_ELEMENT_THEORY = SGP/SGP4

EPOCH          = 2025-12-08T05:16:39.559584
MEAN_MOTION    = 15.49412336
ECCENTRICITY   = .00034318
INCLINATION    = 51.6305
RA_OF_ASC_NODE = 164.8582
ARG_OF_PERICENTER = 219.3069
MEAN_ANOMALY   = 140.7671

EPHEMERIS_TYPE = 0
CLASSIFICATION_TYPE = U
NORAD_CAT_ID   = 66664
ELEMENT_SET_NO = 999
REV_AT_EPOCH   = 128
BSTAR          = .22082399E-3
MEAN_MOTION_DOT = .11911E-3
MEAN_MOTION_DDOT = 0

CCSDS_OMM_VERS = 2.0
CREATION_DATE  = 
ORIGINATOR     = 

OBJECT_NAME    = 1998-067XS
OBJECT_ID      = 1998-067XS
CENTER_NAME    = EARTH
REF_FRAME      = TEME
TIME_SYSTEM    = UTC
MEAN_ELEMENT_THEORY = SGP/SGP4

EPOCH          = 2025-12-07T18:23:05.277120
MEAN_MOTION    = 15.50202047
ECCENTRICITY   = .00041027
INCLINATION    = 51.6298
RA_OF_ASC_NODE = 167.0779
ARG_OF_PERICENTER = 180.8323
MEAN_ANOMALY   = 179.2660

EPHEMERIS_TYPE = 0
CLASSIFICATION_TYPE = U
NORAD_CAT_ID   = 66906
ELEMENT_SET_NO = 999
REV_AT_EPOCH   = 84
BSTAR          = .58960248E-3
MEAN_MOTION_DOT = .33584E-3
MEAN_MOTION_DDOT = 0

CCSDS_OMM_VERS = 2.0
CREATION_DATE  = 
ORIGINATOR     = 

OBJECT_NAME    = 1998-067XT
OBJECT_ID      = 1998-067XT
CENTER_NAME    = EARTH
REF_FRAME      = TEME
TIME_SYSTEM    = UTC
MEAN_ELEMENT_THEORY = SGP/SGP4

EPOCH          = 2025-12-08T05:11:42.536256
MEAN_MOTION    = 15.50682978
ECCENTRICITY   = .00049888
INCLINATION    = 51.6300
RA_OF_ASC_NODE = 164.8361
ARG_OF_PERICENTER = 200.9093
MEAN_ANOMALY   = 159.1692

EPHEMERIS_TYPE = 0
CLASSIFICATION_TYPE = U
NORAD_CAT_ID   = 66907
ELEMENT_SET_NO = 999
REV_AT_EPOCH   = 91
BSTAR          = .10938546E-2
MEAN_MOTION_DOT = .64041E-3
MEAN_MOTION_DDOT = 0

CCSDS_OMM_VERS = 2.0
CREATION_DATE  = 
ORIGINATOR     = 

OBJECT_NAME    = 1998-067XU
OBJECT_ID      = 1998-067XU
CENTER_NAME    = EARTH
REF_FRAME      = TEME
TIME_SYSTEM    = UTC
MEAN_ELEMENT_THEORY = SGP/SGP4

EPOCH          = 2025-12-08T05:11:27.913056
MEAN_MOTION    = 15.50722225
ECCENTRICITY   = .00051815
INCLINATION    = 51.6294
RA_OF_ASC_NODE = 164.8350
ARG_OF_PERICENTER = 200.0126
MEAN_ANOMALY   = 160.0661

EPHEMERIS_TYPE = 0
CLASSIFICATION_TYPE = U
NORAD_CAT_ID   = 66908
ELEMENT_SET_NO = 999
REV_AT_EPOCH   = 91
BSTAR          = .1021887E-2
MEAN_MOTION_DOT = .59851E-3
MEAN_MOTION_DDOT = 0

CCSDS_OMM_VERS = 2.0
CREATION_DATE  = 
ORIGINATOR     = 

OBJECT_NAME    = SILVERSAT
OBJECT_ID      = 1998-067XV
CENTER_NAME    = EARTH
REF_FRAME      = TEME
TIME_SYSTEM    = UTC
MEAN_ELEMENT_THEORY = SGP/SGP4

EPOCH          = 2025-12-07T19:54:33.887232
MEAN_MOTION    = 15.50747382
ECCENTRICITY   = .00050921
INCLINATION    = 51.6296
RA_OF_ASC_NODE = 166.7520
ARG_OF_PERICENTER = 199.8533
MEAN_ANOMALY   = 160.2258

EPHEMERIS_TYPE = 0
CLASSIFICATION_TYPE = U
NORAD_CAT_ID   = 66909
ELEMENT_SET_NO = 999
REV_AT_EPOCH   = 85
BSTAR          = .14852493E-2
MEAN_MOTION_DOT = .87585E-3
MEAN_MOTION_DDOT = 0

CCSDS_OMM_VERS = 2.0
CREATION_DATE  = 
ORIGINATOR     = 

OBJECT_NAME    = 1998-067XW
OBJECT_ID      = 1998-067XW
CENTER_NAME    = EARTH
REF_FRAME      = TEME
TIME_SYSTEM    = UTC
MEAN_ELEMENT_THEORY = SGP/SGP4

EPOCH          = 2025-12-07T21:26:00.150720
MEAN_MOTION    = 15.50969965
ECCENTRICITY   = .00060372
INCLINATION    = 51.6295
RA_OF_ASC_NODE = 166.4259
ARG_OF_PERICENTER = 184.7367
MEAN_ANOMALY   = 175.3566

EPHEMERIS_TYPE = 0
CLASSIFICATION_TYPE = U
NORAD_CAT_ID   = 66910
ELEMENT_SET_NO = 999
REV_AT_EPOCH   = 86
BSTAR          = .10283643E-2
MEAN_MOTION_DOT = .60787E-3
MEAN_MOTION_DDOT = 0

CCSDS_OMM_VERS = 2.0
CREATION_DATE  = 
ORIGINATOR     = 

OBJECT_NAME    = 1998-067XX
OBJECT_ID      = 1998-067XX
CENTER_NAME    = EARTH
REF_FRAME      = TEME
TIME_SYSTEM    = UTC
MEAN_ELEMENT_THEORY = SGP/SGP4

EPOCH          = 2025-12-07T22:58:32.522304
MEAN_MOTION    = 15.51093228
ECCENTRICITY   = .00059306
INCLINATION    = 51.6292
RA_OF_ASC_NODE = 166.1051
ARG_OF_PERICENTER = 185.6814
MEAN_ANOMALY   = 174.4109

EPHEMERIS_TYPE = 0
CLASSIFICATION_TYPE = U
NORAD_CAT_ID   = 66911
ELEMENT_SET_NO = 999
REV_AT_EPOCH   = 86
BSTAR          = .12532777E-2
MEAN_MOTION_DOT = .74641E-3
MEAN_MOTION_DDOT = 0

CCSDS_OMM_VERS = 2.0
CREATION_DATE  = 
ORIGINATOR     = 

OBJECT_NAME    = 1998-067XY
OBJECT_ID      = 1998-067XY
CENTER_NAME    = EARTH
REF_FRAME      = TEME
TIME_SYSTEM    = UTC
MEAN_ELEMENT_THEORY = SGP/SGP4

EPOCH          = 2025-12-07T23:00:53.074368
MEAN_MOTION    = 15.50498763
ECCENTRICITY   = .00051226
INCLINATION    = 51.6298
RA_OF_ASC_NODE = 166.1160
ARG_OF_PERICENTER = 198.5004
MEAN_ANOMALY   = 161.5800

EPHEMERIS_TYPE = 0
CLASSIFICATION_TYPE = U
NORAD_CAT_ID   = 66912
ELEMENT_SET_NO = 999
REV_AT_EPOCH   = 86
BSTAR          = .89233743E-3
MEAN_MOTION_DOT = .51735E-3
MEAN_MOTION_DDOT = 0

